{
  "type": "FeatureCollection",
  "features": [
    {
      "type": "Feature",
      "properties": {
        "norad_id": 35052,
        "name": "IRIDIUM 33 DEB",
        "group": "iridium-33-debris",
        "lat": 25.95608477869834,
        "lon": -159.9756469604354,
        "alt_km": 757.8746764563548,
        "timestamp": "2025-12-09T14:52:26.547863+00:00",
        "meta_object_name": "IRIDIUM 33 DEB",
        "meta_object_id": "1997-051NY",
        "meta_epoch": "2025-12-08T19:47:53.049120",
        "meta_mean_motion": 14.38486321,
        "meta_eccentricity": 0.00136868,
        "meta_inclination": 86.3313,
        "meta_ra_of_asc_node": 22.1547,
        "meta_arg_of_pericenter": 95.9359,
        "meta_mean_anomaly": 264.34,
        "meta_ephemeris_type": 0,
        "meta_classification_type": "U",
        "meta_norad_cat_id": 35052,
        "meta_element_set_no": 999,
        "meta_rev_at_epoch": 87219,
        "meta_bstar": 0.00035523348,
        "meta_mean_motion_dot": 1.105e-05,
        "meta_mean_motion_ddot": 0,
        "tle_line1": "1 35052U 97051NY  25342.82491955  .00001105  00000+0  35523-3 0  9993",
        "tle_line2": "2 35052  86.3313  22.1547 0013686  95.9359 264.3400 14.38486321872192"
      },
      "geometry": {
        "type": "Point",
        "coordinates": [
          -159.9756469604354,
          25.95608477869834
        ]
      }
    },
    {
      "type": "Feature",
      "properties": {
        "norad_id": 35080,
        "name": "IRIDIUM 33 DEB",
        "group": "iridium-33-debris",
        "lat": 21.701886446614594,
        "lon": -127.64716939273461,
        "alt_km": 576.0631188497318,
        "timestamp": "2025-12-09T14:52:26.547873+00:00",
        "meta_object_name": "IRIDIUM 33 DEB",
        "meta_object_id": "1997-051PF",
        "meta_epoch": "2025-12-09T04:27:39.651840",
        "meta_mean_motion": 14.85337846,
        "meta_eccentricity": 0.00616007,
        "meta_inclination": 86.206,
        "meta_ra_of_asc_node": 54.0734,
        "meta_arg_of_pericenter": 192.7103,
        "meta_mean_anomaly": 167.2572,
        "meta_ephemeris_type": 0,
        "meta_classification_type": "U",
        "meta_norad_cat_id": 35080,
        "meta_element_set_no": 999,
        "meta_rev_at_epoch": 69635,
        "meta_bstar": 0.0096310492,
        "meta_mean_motion_dot": 0.00086603,
        "meta_mean_motion_ddot": 0,
        "tle_line1": "1 35080U 97051PF  25343.18587560  .00086603  00000+0  96310-2 0  9998",
        "tle_line2": "2 35080  86.2060  54.0734 0061600 192.7103 167.2572 14.85337846696357"
      },
      "geometry": {
        "type": "Point",
        "coordinates": [
          -127.64716939273461,
          21.701886446614594
        ]
      }
    },
    {
      "type": "Feature",
      "properties": {
        "norad_id": 35297,
        "name": "IRIDIUM 33 DEB",
        "group": "iridium-33-debris",
        "lat": -14.10763052860335,
        "lon": 63.18201663754578,
        "alt_km": 757.8903655804352,
        "timestamp": "2025-12-09T14:52:26.547884+00:00",
        "meta_object_name": "IRIDIUM 33 DEB",
        "meta_object_id": "1997-051PM",
        "meta_epoch": "2025-12-06T00:31:29.302752",
        "meta_mean_motion": 14.45108459,
        "meta_eccentricity": 0.00170329,
        "meta_inclination": 86.3867,
        "meta_ra_of_asc_node": 65.6268,
        "meta_arg_of_pericenter": 161.2449,
        "meta_mean_anomaly": 198.9384,
        "meta_ephemeris_type": 0,
        "meta_classification_type": "U",
        "meta_norad_cat_id": 35297,
        "meta_element_set_no": 999,
        "meta_rev_at_epoch": 70329,
        "meta_bstar": 0.0012426888,
        "meta_mean_motion_dot": 4.371e-05,
        "meta_mean_motion_ddot": 0,
        "tle_line1": "1 35297U 97051PM  25340.02186693  .00004371  00000+0  12427-2 0  9999",
        "tle_line2": "2 35297  86.3867  65.6268 0017032 161.2449 198.9384 14.45108459703293"
      },
      "geometry": {
        "type": "Point",
        "coordinates": [
          63.18201663754578,
          -14.10763052860335
        ]
      }
    },
    {
      "type": "Feature",
      "properties": {
        "norad_id": 35299,
        "name": "IRIDIUM 33 DEB",
        "group": "iridium-33-debris",
        "lat": -33.369778637013745,
        "lon": 32.09405398921168,
        "alt_km": 796.5780886455732,
        "timestamp": "2025-12-09T14:52:26.547894+00:00",
        "meta_object_name": "IRIDIUM 33 DEB",
        "meta_object_id": "1997-051PP",
        "meta_epoch": "2025-12-09T03:37:25.282848",
        "meta_mean_motion": 14.40832112,
        "meta_eccentricity": 0.00588898,
        "meta_inclination": 86.2882,
        "meta_ra_of_asc_node": 34.7485,
        "meta_arg_of_pericenter": 113.8076,
        "meta_mean_anomaly": 303.2931,
        "meta_ephemeris_type": 0,
        "meta_classification_type": "U",
        "meta_norad_cat_id": 35299,
        "meta_element_set_no": 999,
        "meta_rev_at_epoch": 86279,
        "meta_bstar": 0.00094086001,
        "meta_mean_motion_dot": 3.095e-05,
        "meta_mean_motion_ddot": 0,
        "tle_line1": "1 35299U 97051PP  25343.15098707  .00003095  00000+0  94086-3 0  9990",
        "tle_line2": "2 35299  86.2882  34.7485 0058889 113.8076 303.2931 14.40832112862798"
      },
      "geometry": {
        "type": "Point",
        "coordinates": [
          32.09405398921168,
          -33.369778637013745
        ]
      }
    },
    {
      "type": "Feature",
      "properties": {
        "norad_id": 35480,
        "name": "IRIDIUM 33 DEB",
        "group": "iridium-33-debris",
        "lat": -33.08393187236907,
        "lon": 23.887665274649276,
        "alt_km": 741.7097012451923,
        "timestamp": "2025-12-09T14:52:26.547905+00:00",
        "meta_object_name": "IRIDIUM 33 DEB",
        "meta_object_id": "1997-051QA",
        "meta_epoch": "2025-12-01T21:29:27.496896",
        "meta_mean_motion": 14.49686619,
        "meta_eccentricity": 0.00155495,
        "meta_inclination": 86.3575,
        "meta_ra_of_asc_node": 29.6125,
        "meta_arg_of_pericenter": 136.7189,
        "meta_mean_anomaly": 223.524,
        "meta_ephemeris_type": 0,
        "meta_classification_type": "U",
        "meta_norad_cat_id": 35480,
        "meta_element_set_no": 999,
        "meta_rev_at_epoch": 86874,
        "meta_bstar": 0.000651702,
        "meta_mean_motion_dot": 2.53e-05,
        "meta_mean_motion_ddot": 0,
        "tle_line1": "1 35480U 97051QA  25335.89545714  .00002530  00000+0  65170-3 0  9994",
        "tle_line2": "2 35480  86.3575  29.6125 0015549 136.7189 223.5240 14.49686619868745"
      },
      "geometry": {
        "type": "Point",
        "coordinates": [
          23.887665274649276,
          -33.08393187236907
        ]
      }
    },
    {
      "type": "Feature",
      "properties": {
        "norad_id": 35484,
        "name": "IRIDIUM 33 DEB",
        "group": "iridium-33-debris",
        "lat": -54.145358233928654,
        "lon": -10.848121834777086,
        "alt_km": 595.124445994843,
        "timestamp": "2025-12-09T14:52:26.547915+00:00",
        "meta_object_name": "IRIDIUM 33 DEB",
        "meta_object_id": "1997-051QE",
        "meta_epoch": "2025-12-09T07:06:09.545184",
        "meta_mean_motion": 14.98295124,
        "meta_eccentricity": 0.00232188,
        "meta_inclination": 86.3607,
        "meta_ra_of_asc_node": 354.3559,
        "meta_arg_of_pericenter": 136.4781,
        "meta_mean_anomaly": 223.8288,
        "meta_ephemeris_type": 0,
        "meta_classification_type": "U",
        "meta_norad_cat_id": 35484,
        "meta_element_set_no": 999,
        "meta_rev_at_epoch": 61964,
        "meta_bstar": 0.0033574067,
        "meta_mean_motion_dot": 0.00040354,
        "meta_mean_motion_ddot": 0,
        "tle_line1": "1 35484U 97051QE  25343.29594381  .00040354  00000+0  33574-2 0  9993",
        "tle_line2": "2 35484  86.3607 354.3559 0023218 136.4781 223.8288 14.98295124619640"
      },
      "geometry": {
        "type": "Point",
        "coordinates": [
          -10.848121834777086,
          -54.145358233928654
        ]
      }
    },
    {
      "type": "Feature",
      "properties": {
        "norad_id": 35488,
        "name": "IRIDIUM 33 DEB",
        "group": "iridium-33-debris",
        "lat": -48.797672930964,
        "lon": 126.52662670162472,
        "alt_km": 648.2504910780517,
        "timestamp": "2025-12-09T14:52:26.547926+00:00",
        "meta_object_name": "IRIDIUM 33 DEB",
        "meta_object_id": "1997-051QJ",
        "meta_epoch": "2025-12-08T21:39:05.105088",
        "meta_mean_motion": 14.8290127,
        "meta_eccentricity": 0.0030312,
        "meta_inclination": 86.3246,
        "meta_ra_of_asc_node": 302.6469,
        "meta_arg_of_pericenter": 55.0525,
        "meta_mean_anomaly": 305.3538,
        "meta_ephemeris_type": 0,
        "meta_classification_type": "U",
        "meta_norad_cat_id": 35488,
        "meta_element_set_no": 999,
        "meta_rev_at_epoch": 88209,
        "meta_bstar": 0.0019549,
        "meta_mean_motion_dot": 0.00016018,
        "meta_mean_motion_ddot": 0,
        "tle_line1": "1 35488U 97051QJ  25342.90214242  .00016018  00000+0  19549-2 0  9995",
        "tle_line2": "2 35488  86.3246 302.6469 0030312  55.0525 305.3538 14.82901270882098"
      },
      "geometry": {
        "type": "Point",
        "coordinates": [
          126.52662670162472,
          -48.797672930964
        ]
      }
    }
  ]
}